     2.100          NAVIGATION                              RINEX VERSION / TYPE
fic2rin                                 09/16/2013 00:13:53 PGM / RUN BY / DATE
                                                            END OF HEADER
12 13  9 15  4  0  0.0  .156422611326D-03  .216004991671D-11  .000000000000D+00
     .560000000000D+02 -.843750000000D+01  .428982154543D-08 -.570794968587D+00
    -.514090061188D-06  .451537291519D-02  .319629907608D-05  .515376357460D+04
     .144000000000D+05  .521540641785D-07  .753313985363D+00 -.558793544769D-08
     .985145994188D+00  .330781250000D+03  .335955858504D+00 -.828463080241D-08
    -.532165023952D-10  .100000000000D+01  .175800000000D+04  .000000000000D+00
     .240000000000D+01  .000000000000D+00 -.116415321827D-07  .560000000000D+02
     .720600000000D+04  .400000000000D+01
13 13  9 15  4  0  0.0  .798497349024D-04 -.375166564481D-11  .000000000000D+00
     .520000000000D+02 -.356250000000D+01  .413231498465D-08  .207029665866D+01
    -.614672899246D-07  .502131902613D-02  .100433826447D-04  .515370237541D+04
     .144000000000D+05  .391155481339D-07 -.127230141301D+01  .000000000000D+00
     .980051888146D+00  .192312500000D+03  .220060460171D+01 -.773782231136D-08
    -.493949146393D-09  .100000000000D+01  .175800000000D+04  .000000000000D+00
     .240000000000D+01  .000000000000D+00 -.107102096081D-07  .520000000000D+02
     .720600000000D+04  .400000000000D+01
14 13  9 15  4  0  0.0  .215744134039D-03 -.909494701773D-12  .000000000000D+00
     .130000000000D+02  .478125000000D+01  .420981821297D-08  .230235332196D+01
     .130385160446D-06  .741236994509D-02  .107157975435D-04  .515355660248D+04
     .144000000000D+05  .242143869400D-07 -.130234512315D+01 -.171363353729D-06
     .972678871728D+00  .176750000000D+03 -.200633451259D+01 -.773675083816D-08
    -.534307970357D-09  .100000000000D+01  .175800000000D+04  .000000000000D+00
     .240000000000D+01  .000000000000D+00 -.884756445885D-08  .130000000000D+02
     .720600000000D+04  .400000000000D+01
15 13  9 15  4  0  0.0 -.137150287628D-03 -.181898940355D-11  .000000000000D+00
     .760000000000D+02  .146875000000D+01  .522236038942D-08  .182825917093D+01
     .255182385445D-06  .553976895753D-02  .919401645660D-05  .515355860138D+04
     .144000000000D+05  .335276126862D-07 -.140594310791D+01  .178813934326D-06
     .939246310396D+00  .191812500000D+03  .153384798418D+00 -.835891961113D-08
    -.493234830925D-09  .100000000000D+01  .175800000000D+04  .000000000000D+00
     .240000000000D+01  .000000000000D+00 -.977888703346D-08  .760000000000D+02
     .720600000000D+04  .400000000000D+01
16 13  9 15  4  0  0.0 -.246685929596D-03  .795807864051D-12  .000000000000D+00
     .108000000000D+03 -.284375000000D+01  .422303304913D-08 -.274974626588D+01
    -.193715095520D-06  .705424894113D-02  .259838998318D-05  .515370912361D+04
     .144000000000D+05 -.987201929092D-07  .771750413382D+00  .745058059692D-08
     .985799244164D+00  .344437500000D+03  .139027869606D+00 -.821284209784D-08
     .142863093678D-11  .100000000000D+01  .175800000000D+04  .000000000000D+00
     .340000000000D+01  .000000000000D+00 -.977888703346D-08  .108000000000D+03
     .720600000000D+04  .400000000000D+01
17 13  9 15  4  0  0.0 -.214399769902D-04 -.375166564481D-11  .000000000000D+00
     .800000000000D+02 -.950625000000D+02  .411231415153D-08  .257753349966D+01
    -.491365790367D-05  .851276947651D-02  .838004052639D-05  .515368770599D+04
     .144000000000D+05  .335276126862D-07  .180749851133D+01 -.126659870148D-06
     .966144130775D+00  .219468750000D+03 -.219258723570D+01 -.784925552443D-08
    -.753602819154D-10  .100000000000D+01  .175800000000D+04  .000000000000D+00
     .240000000000D+01  .000000000000D+00 -.102445483208D-07  .800000000000D+02
     .720600000000D+04  .400000000000D+01
19 13  9 15  4  0  0.0 -.404236838222D-03 -.284217094304D-11  .000000000000D+00
     .340000000000D+02 -.109781250000D+03  .429017870316D-08  .174390107367D+01
    -.561028718948D-05  .953390321229D-02  .929459929466D-05  .515374698448D+04
     .144000000000D+05 -.104308128357D-06  .185913861398D+01  .707805156708D-07
     .963369639344D+00  .204125000000D+03  .380418709509D+00 -.804926385558D-08
    -.213937482783D-09  .100000000000D+01  .175800000000D+04  .000000000000D+00
     .240000000000D+01  .000000000000D+00 -.144354999065D-07  .340000000000D+02
     .720600000000D+04  .400000000000D+01
20 13  9 15  4  0  0.0  .122520606965D-03  .261479726760D-11  .000000000000D+00
     .760000000000D+02  .203125000000D+02  .580631328483D-08 -.171071998210D+01
     .116229057312D-05  .553635857068D-02  .523775815964D-05  .515366969490D+04
     .144000000000D+05  .106170773506D-06 -.247831710084D+01  .745058059692D-07
     .927709704776D+00  .260937500000D+03  .128625761784D+01 -.865964642332D-08
     .189293599124D-09  .100000000000D+01  .175800000000D+04  .000000000000D+00
     .240000000000D+01  .000000000000D+00 -.791624188423D-08  .760000000000D+02
     .720600000000D+04  .400000000000D+01
21 13  9 15  4  0  0.0 -.318738631904D-03 -.193267624127D-11  .000000000000D+00
     .900000000000D+02  .131250000000D+02  .513985695282D-08 -.117453458607D+01
     .102818012238D-05  .205535814166D-01  .103972852230D-04  .515363210106D+04
     .144000000000D+05  .363215804100D-06  .281166550975D+01  .471249222755D-06
     .932190853994D+00  .160187500000D+03 -.210586440891D+01 -.834963351004D-08
     .508235455761D-09  .100000000000D+01  .175800000000D+04  .000000000000D+00
     .240000000000D+01  .000000000000D+00 -.111758708954D-07  .900000000000D+02
     .720600000000D+04  .400000000000D+01
23 13  9 15  4  0  0.0  .480907037854D-04 -.341060513165D-11  .000000000000D+00
     .390000000000D+02 -.790625000000D+01  .482770109313D-08  .130709574480D+01
    -.143423676491D-06  .888207892422D-02  .983476638794D-05  .515365938568D+04
     .144000000000D+05 -.633299350739D-07 -.136309620353D+01  .912696123123D-07
     .954239412542D+00  .187718750000D+03 -.282374140256D+01 -.820034157714D-08
    -.592167523297D-09  .100000000000D+01  .175800000000D+04  .000000000000D+00
     .240000000000D+01  .000000000000D+00 -.200234353542D-07  .390000000000D+02
     .720600000000D+04  .400000000000D+01
24 13  9 15  4  0  0.0 -.137696042657D-04 -.682121026330D-12  .000000000000D+00
     .110000000000D+02  .902187500000D+02  .453018870054D-08  .667213864273D+00
     .471062958241D-05  .103979778942D-02  .843591988087D-05  .515366406822D+04
     .144000000000D+05  .298023223877D-07 -.336523529236D+00  .279396772385D-07
     .958682265490D+00  .212593750000D+03  .202809087813D+00 -.815641117584D-08
     .178578867098D-10  .100000000000D+01  .175800000000D+04  .000000000000D+00
     .240000000000D+01  .000000000000D+00  .325962901115D-08  .110000000000D+02
     .720600000000D+04  .400000000000D+01
25 13  9 15  4  0  0.0  .147378537804D-03  .420641299570D-11  .000000000000D+00
     .730000000000D+02 -.565625000000D+01  .444375652887D-08 -.155557134774D+01
    -.223517417908D-06  .273779663257D-02  .295229256153D-05  .515372396851D+04
     .144000000000D+05  .260770320892D-07  .713800946937D+00 -.447034835815D-07
     .973970846367D+00  .331843750000D+03  .743832857178D+00 -.835249077191D-08
    -.417874549009D-10  .100000000000D+01  .175800000000D+04  .000000000000D+00
     .240000000000D+01  .000000000000D+00  .558793544769D-08  .730000000000D+02
     .720600000000D+04  .400000000000D+01
26 13  9 15  4  0  0.0  .190670602024D-03  .183035808732D-10  .000000000000D+00
     .400000000000D+02  .156250000000D+00  .424981987920D-08  .131690820345D+01
    -.132247805595D-06  .210485300049D-01  .102706253529D-04  .515369022369D+04
     .144000000000D+05 -.439584255219D-06 -.128010423769D+01 -.188127160072D-06
     .977482873800D+00  .196906250000D+03  .124999386383D+01 -.804319217410D-08
    -.434660962517D-09  .100000000000D+01  .175800000000D+04  .000000000000D+00
     .240000000000D+01  .000000000000D+00 -.558793544769D-08  .400000000000D+02
     .720600000000D+04  .400000000000D+01
27 13  9 15  4  0  0.0 -.366615131497D-04 -.454747350886D-11  .000000000000D+00
     .620000000000D+02 -.119750000000D+03  .435268130665D-08  .172336438683D+01
    -.614672899246D-05  .420147669502D-03  .818446278572D-05  .515367264748D+04
     .144000000000D+05  .614672899246D-07  .176357231573D+01 -.931322574615D-08
     .960733166918D+00  .220937500000D+03  .959062532027D+00 -.813748181592D-08
    -.173221501085D-09  .100000000000D+01  .175800000000D+04  .000000000000D+00
     .240000000000D+01  .000000000000D+00  .186264514923D-08  .620000000000D+02
     .720600000000D+04  .400000000000D+01
28 13  9 15  4  0  0.0  .292652286589D-03  .306954461848D-11  .000000000000D+00
     .920000000000D+02 -.987500000000D+01  .406624080382D-08 -.291660062211D+01
    -.491738319397D-06  .187510473188D-01  .279955565929D-05  .515365218353D+04
     .144000000000D+05  .266358256340D-06  .777858049550D+00 -.596046447754D-07
     .984265077586D+00  .336500000000D+03 -.176342321951D+01 -.783782647693D-08
     .496449250533D-10  .100000000000D+01  .175800000000D+04  .000000000000D+00
     .240000000000D+01  .000000000000D+00 -.107102096081D-07  .920000000000D+02
     .720600000000D+04  .400000000000D+01
29 13  9 15  4  0  0.0  .470760278404D-03  .306954461848D-11  .000000000000D+00
     .750000000000D+02 -.103843750000D+03  .415303013323D-08 -.871251898362D+00
    -.532716512680D-05  .147465174086D-02  .962801277637D-05  .515358978271D+04
     .144000000000D+05 -.651925802231D-07  .181636686116D+01  .465661287308D-07
     .966815232741D+00  .196031250000D+03 -.991333962113D+00 -.799890461506D-08
    -.113219001740D-09  .100000000000D+01  .175800000000D+04  .000000000000D+00
     .240000000000D+01  .000000000000D+00 -.931322574615D-08  .750000000000D+02
     .720600000000D+04  .400000000000D+01
